{"type":"FeatureCollection","features":[{"type":"Feature","properties":{},"geometry":{"type":"Polygon","coordinates":[[[23.699548860263654,37.96883186029141],[23.700819353484523,37.968041965261456],[23.70128982283815,37.96774573590186],[23.702058740749063,37.967283522651215],[23.702138112574108,37.967236778270134],[23.70216601685038,37.96722034453825],[23.702622555610578,37.96695147276442],[23.703570426396507,37.96638158327415],[23.703570485740652,37.966381547372166],[23.704247353528498,37.965977671400225],[23.704815471831008,37.96563210239769],[23.70534396579454,37.96531078058262],[23.70552409703778,37.96520126004429],[23.70589749265055,37.96497236563629],[23.706183849033827,37.964801836412185],[23.706239067675,37.964756384450475],[23.706322622502505,37.964687608465674],[23.7063400578187,37.96467325661423],[23.706388168512962,37.96463365602684],[23.706445835748916,37.96458618127782],[23.706445897367058,37.96458614538004],[23.70720428272997,37.96414644011658],[23.70732833431865,37.9640836586099],[23.707562636829888,37.96394003513471],[23.708218044026605,37.963554108496766],[23.70841849277517,37.96351404748375],[23.708635909368752,37.963501066798955],[23.710402178462537,37.96360456946527],[23.71141546653885,37.963670149507195],[23.711970212437674,37.963742375434016],[23.712085724713777,37.963757414065284],[23.712335937706403,37.96379851379532],[23.71300476574363,37.96390837212988],[23.71379118740061,37.96404036002206],[23.713852733670446,37.96405068978183],[23.71420359599098,37.964109573872996],[23.714556806684783,37.96412395069174],[23.714761750443238,37.964092691759056],[23.714815607985102,37.96408447639322],[23.71498379866869,37.96405882231698],[23.71504962803088,37.964048781895954],[23.715134546303315,37.964035828730076],[23.7151384568125,37.9640352316315],[23.71571301566419,37.96385521367962],[23.71573792020139,37.96384741101631],[23.716066323227075,37.96374455587371],[23.71664567398106,37.963326853527484],[23.716694529507233,37.963288763763266],[23.716746601516,37.96324816622632],[23.716916501980137,37.96311570270046],[23.71729902253573,37.962814690824146],[23.717679796310215,37.962504660606264],[23.718118351416866,37.962154209598005],[23.718441637813385,37.96186442266637],[23.718455824008423,37.96185170608387],[23.718546138248442,37.96177320451876],[23.718614521413176,37.96171376586568],[23.718922835359823,37.96153448754522],[23.718960454636605,37.96151261300635],[23.719162515405387,37.96139511770151],[23.7192412891204,37.961354747713095],[23.719372373186996,37.961309996010996],[23.719669811072116,37.96120705687677],[23.719828929016263,37.961180397233456],[23.719909700777198,37.96117608851432],[23.719990824325674,37.96117176976147],[23.72011260423757,37.96123514974856],[23.721381102143734,37.96144545700998],[23.721817170920314,37.961496127361094],[23.72197493519047,37.96151445846031],[23.722693699659654,37.96152063238441],[23.72269743001384,37.96152066641287],[23.722698496656,37.96152067253206],[23.72276983903664,37.961577328938745],[23.722923801485933,37.96169959634814],[23.722943230411815,37.96171502620123],[23.72299610781136,37.961757325617654],[23.72312256141559,37.9618584819989],[23.723795329026757,37.962396653713924],[23.723830293737187,37.96242462346916],[23.723946389718005,37.962513743168856],[23.723985771033217,37.96254397465957],[23.724166489848695,37.96268270034212],[23.724252584772586,37.96274878996791],[23.724382966464464,37.962848874445186],[23.72441913907473,37.96287664226111],[23.72450747637501,37.9629444521036],[23.724567008473773,37.962897729887224],[23.724576081969463,37.96289060931755],[23.724576906317306,37.96288996141821],[23.724592506059533,37.962877718779765],[23.724633425245596,37.962845605206816],[23.724734864482183,37.9628323232553],[23.725008207682006,37.9626076402988],[23.725111002280318,37.96252505298861],[23.725260832012697,37.962405440533956],[23.725329336653203,37.96235152316068],[23.72596982650147,37.961834775648676],[23.726511042646717,37.961416935648245],[23.72713002057165,37.9609406897109],[23.72759201808552,37.96058575113321],[23.72803007659243,37.960257794051685],[23.72839254961145,37.959974725307106],[23.72890199595278,37.95957933301956],[23.729667594659652,37.958981737223745],[23.730664721739057,37.958199902262166],[23.730718685189807,37.958213710961445],[23.731464366630945,37.95840452021087],[23.73150878384508,37.958418140921886],[23.73206675129404,37.958563619201584],[23.732495382932143,37.95866824281886],[23.73286570893427,37.958763719612506],[23.733598554059814,37.95895014557872],[23.734167217858914,37.959091131667556],[23.7342683524553,37.959074559194285],[23.73493355187384,37.9592537813673],[23.735461349433045,37.959395980501526],[23.7356825058616,37.959473828007475],[23.736016778422165,37.95959149195072],[23.736201021746872,37.95968294083042],[23.736593024154875,37.95990650697602],[23.736598482851942,37.95990961963228],[23.73669833558812,37.959966567584814],[23.73669999460616,37.95996772314535],[23.7370135954263,37.96018613998739],[23.737214768309745,37.960326330787936],[23.737190262632527,37.96038226053552],[23.73747870366994,37.96050007209438],[23.739136404218705,37.96141856781402],[23.739305856568546,37.96152205088585],[23.739362620230345,37.9615567158511],[23.73944416775137,37.96160651604805],[23.739462274544852,37.96161757350465],[23.73979484165063,37.961802660071356],[23.73999560090426,37.9619143905797],[23.74001508605992,37.96192523468759],[23.74011124780751,37.9619776597222],[23.74066035884126,37.962277020532355],[23.741608634104594,37.962793982766115],[23.741895864324565,37.962956711868785],[23.742425016136973,37.963256495604035],[23.742455068771797,37.963273521849906],[23.74342007169024,37.96382992301488],[23.74344262902765,37.963842811968334],[23.74350578029448,37.96387889666852],[23.74384382349566,37.964072052023276],[23.74386596855079,37.9640847056625],[23.744243437771257,37.964300385980714],[23.744473263500097,37.96443142893945],[23.744473514594386,37.964431572789714],[23.745066620562742,37.96476763057095],[23.745207145819318,37.964847252003864],[23.745345215947143,37.964925174432594],[23.74549337376804,37.96500878943004],[23.74550462466368,37.96501513901238],[23.74619200943504,37.96541319095985],[23.746278240703603,37.96545823679854],[23.746658779585356,37.96565702220238],[23.746663560815023,37.96569586451838],[23.7466953734233,37.965948448847215],[23.7468263145793,37.96676649050437],[23.746950693888,37.967532853240186],[23.74699843002734,37.9678258746116],[23.74716590920157,37.96888975475897],[23.747324670144966,37.96990404491771],[23.747351122808148,37.97007534644397],[23.74737104235735,37.9702035758006],[23.747378063920053,37.97024866969585],[23.747399510799923,37.97038639468797],[23.747431965280892,37.970571228387435],[23.747507448419054,37.97105287370693],[23.747543085657394,37.97128026398247],[23.74755348104228,37.97134659673522],[23.747553525595773,37.9713468852429],[23.74757261478395,37.97147242872174],[23.74758987128064,37.971585915341926],[23.747622714246752,37.97180189648607],[23.747644646328126,37.97194614866316],[23.747716954814216,37.97244201195107],[23.747776441339468,37.97283551367528],[23.747799412222754,37.97298746772532],[23.74781191699653,37.97307534302615],[23.74781275754477,37.973081249162455],[23.74781608526404,37.97310463389124],[23.747822345987018,37.973148635549535],[23.747828596723142,37.973192563280165],[23.74782912151779,37.97319624886835],[23.747836939955338,37.97325119279036],[23.74783776939324,37.9732570195892],[23.747841107140772,37.97328047283594],[23.747857784730595,37.97339767865666],[23.747913837805537,37.9737881454658],[23.74791408356929,37.97378985933977],[23.747914170343158,37.9737904543754],[23.74798040799795,37.97426768374494],[23.748038118041897,37.97476802180593],[23.747995054507648,37.97485689833079],[23.74799559367146,37.97485705270462],[23.748193573875245,37.97491373589828],[23.74852556460501,37.97496132921575],[23.749263749718352,37.97506715048868],[23.749783035616023,37.97513094788932],[23.74995222202081,37.975169420358895],[23.74995542241874,37.975170148191246],[23.750023665301654,37.97520336595809],[23.750063973358653,37.97522298700412],[23.751418942148984,37.97552778919362],[23.751552650781285,37.975550603836396],[23.752041293996278,37.97561992083992],[23.752056141109748,37.9756220268969],[23.75239639088238,37.97568939643368],[23.752596909036722,37.97572909911036],[23.752909266288686,37.97584605319975],[23.753374202250097,37.976144779871774],[23.753842051065455,37.976446937484816],[23.75417131991248,37.976651169091326],[23.754669299763034,37.97702173636071],[23.755395355443483,37.977570373662864],[23.755461731394657,37.97776617203976],[23.75555042008768,37.97818557463869],[23.75569911950127,37.978893662261235],[23.755976328522117,37.9801541931032],[23.755976876795255,37.98015642762863],[23.755977628166928,37.98016128802306],[23.755982451888,37.98019249065546],[23.756094313372856,37.980368473519725],[23.756245969222785,37.98056256446956],[23.756316808307034,37.98066185275079],[23.757072623565232,37.98079360686484],[23.75733711960476,37.980839712816895],[23.757408015439573,37.98086382785746],[23.75760370005371,37.98093039108488],[23.758438186398195,37.981351205874375],[23.758685095066138,37.98147338631345],[23.759920171572293,37.981597587170356],[23.760118939779716,37.981643056995054],[23.761174265206805,37.98211387324103],[23.76123344205607,37.98219060270964],[23.761533334760074,37.982580035865915],[23.76173483134861,37.98284955833445],[23.7620016775917,37.98319258729483],[23.762081256449065,37.98323330615521],[23.762145163548986,37.983278499704426],[23.762340603673806,37.9833645169173],[23.763059099923904,37.98368592294656],[23.76316676364858,37.983735710499396],[23.763343258708456,37.98384872648078],[23.76346244838992,37.98396613340695],[23.763571631227734,37.98409703938877],[23.76382565956277,37.98455720557205],[23.764074368213247,37.985012854075535],[23.764225669364244,37.98521594677126],[23.764384349024052,37.98533793831698],[23.76460383722813,37.98547357063974],[23.76480556205559,37.985600154176254],[23.765021204252744,37.98574033402596],[23.765008791575898,37.98574254261551],[23.764796089623225,37.985780392403555],[23.76442287471174,37.98586526769924],[23.76426738086705,37.98589716182959],[23.76398772475033,37.98595452398513],[23.763910844396257,37.98595887613371],[23.76384458861215,37.98596324956292],[23.763588963314085,37.9859801227832],[23.763447057162725,37.98598948936074],[23.76295308613783,37.986110168510145],[23.761407679935314,37.98641291243365],[23.76140480841559,37.98641347532035],[23.761328317087944,37.986429016931794],[23.761308897405137,37.986432963011936],[23.76114129459248,37.98646701765395],[23.760628011817253,37.98656746982054],[23.760434807977738,37.98660528018632],[23.76041201804314,37.98660974019717],[23.760241100778394,37.9866409369382],[23.75854205105142,37.98696671373649],[23.757729593029133,37.98712248512209],[23.757571839944443,37.98715370509167],[23.757472369699066,37.98717310570498],[23.756591212767216,37.987344956095185],[23.756207288546022,37.987419830221185],[23.75581128689907,37.98749705831506],[23.75561083290434,37.9875315271605],[23.755345186978833,37.98757720546751],[23.75534136070653,37.98757787617694],[23.75439380824123,37.98774392991488],[23.753413809982074,37.98791566089955],[23.753401815769124,37.987917839397305],[23.752828303291956,37.98802201482888],[23.752827152408234,37.98802222421252],[23.752825194768626,37.98802257971165],[23.752812764976014,37.988024914958864],[23.752308194290425,37.988119705223085],[23.751797388017987,37.988215664450735],[23.751710250239167,37.98823203355286],[23.751649478430455,37.988243499390194],[23.750505559685163,37.988459312187324],[23.749545840957882,37.988641084314494],[23.749540873716782,37.98864202549494],[23.749524387529966,37.988645298106164],[23.7491851115927,37.98871264200367],[23.749084936174825,37.988732526111015],[23.748892524604884,37.98877071754641],[23.7486423898376,37.98882036594167],[23.748514607914373,37.98884571093689],[23.74847275464583,37.98885401241004],[23.748200708744807,37.98890797072133],[23.748077819879168,37.988932344216266],[23.747774909621096,37.98898524672387],[23.747425290653,37.9890444689168],[23.74682914838767,37.989145446209925],[23.746469902273002,37.989206438394966],[23.746097565233512,37.989269651732755],[23.74609525323039,37.989270044208745],[23.745686814855727,37.98934126463921],[23.74566200596875,37.98934550471933],[23.74478799683943,37.98949487516156],[23.742510118293595,37.98988413723687],[23.742506355557286,37.98988480856857],[23.742320052163315,37.98991804824473],[23.741945346995266,37.989984899745245],[23.74192633156557,37.98998829192081],[23.7417865150464,37.99001323726872],[23.740924438437627,37.99015104077241],[23.740763485370366,37.99017772469208],[23.740631292483553,37.9901978356536],[23.74047271926254,37.990221960267554],[23.74047150462191,37.99022214505473],[23.740467238184483,37.99022290263436],[23.74019943352387,37.99027047608165],[23.74019587815526,37.99027110723952],[23.740128449097668,37.99028310940482],[23.739970818261384,37.990311167728514],[23.739752891670115,37.9903467371457],[23.739752425622076,37.99034681272374],[23.738614468334333,37.99053348260055],[23.738260528220614,37.99058677261019],[23.737963303208222,37.99062837748158],[23.737690116961026,37.99066661754094],[23.736588095347752,37.990821879571804],[23.736586500032633,37.990822143680674],[23.735831733108974,37.9909468939878],[23.73559280206269,37.990986384078084],[23.73559276103894,37.99098639119614],[23.73530191116538,37.99103381154301],[23.735156585226292,37.99105750544619],[23.73469407819558,37.991134732486415],[23.734677272453176,37.99113754083506],[23.734080850124542,37.99123404371522],[23.734072978402036,37.991235317459285],[23.733033883136535,37.991404207668104],[23.73229994377183,37.991528719377165],[23.73189825749516,37.99159540080762],[23.731363419314793,37.99167529609941],[23.731363362537124,37.991675250905516],[23.731298072647853,37.991622702000804],[23.731243492588522,37.99147181676253],[23.731201665571533,37.9913561882422],[23.731193053940615,37.99133238276546],[23.73118649318837,37.99131424564628],[23.73118644808884,37.99131412116596],[23.731155683775413,37.991193238184415],[23.731140815305253,37.99113481629041],[23.731089860961614,37.99093460474835],[23.73094228087562,37.99035471067893],[23.73088391211332,37.9901253552485],[23.730845673795145,37.98997510202561],[23.730829323847335,37.98991085529346],[23.730819248704282,37.98987126674371],[23.73071193915282,37.98944959573824],[23.730705241914503,37.9894523635725],[23.730677527978063,37.98946381763641],[23.730632046721624,37.98948261433067],[23.730619065109746,37.989487978789846],[23.730526873105582,37.989432960495805],[23.730189949784023,37.98923188932713],[23.730118099804095,37.989189009907555],[23.729482029432543,37.98880940574284],[23.72905840089772,37.98855607096735],[23.728635166699696,37.98830622444274],[23.72858914663026,37.98827905718739],[23.72797782688001,37.98791817117482],[23.727975823617317,37.987916972339576],[23.727660024113835,37.987728165967916],[23.727407910347814,37.98757603452647],[23.727262691057025,37.9874884048497],[23.727101101913792,37.98739129515415],[23.726844426117978,37.987237041106056],[23.726735754217277,37.98717173214397],[23.726527594527216,37.98704774799784],[23.726462558118545,37.98700901096293],[23.726279050528504,37.98689970975295],[23.726179931138685,37.986840671112574],[23.7260923426487,37.98678850089442],[23.725771897203614,37.98659763449842],[23.725725547237165,37.986570026423045],[23.725542910118953,37.98646394187445],[23.725241293223075,37.98628874624042],[23.725234803788968,37.986284976328335],[23.724944282516674,37.986119149469765],[23.724941484840794,37.98611755306084],[23.72475166422848,37.98600785255074],[23.724644852458074,37.98594612410327],[23.724620478685022,37.98593203854132],[23.724276392776016,37.98572914904844],[23.72424230187207,37.985709047083944],[23.72413714206532,37.98564703904281],[23.72412940421853,37.98564247661592],[23.724128246587913,37.98564265145412],[23.72359726669645,37.98572269816785],[23.7231580646372,37.98578890658462],[23.722187059542488,37.985939835737845],[23.722089147764905,37.98595312372489],[23.721835266235107,37.985993081449294],[23.721658889975327,37.98601970367639],[23.721571967685318,37.98603282346002],[23.721570709774603,37.986033013357485],[23.721566336679157,37.986031572666754],[23.72151461815776,37.98601453401462],[23.72133648839229,37.98595584948393],[23.721181780923043,37.98587128392464],[23.72117958310781,37.98587008270975],[23.7211791660463,37.98586985459735],[23.72108231358667,37.98550911094872],[23.72104822253649,37.98538161903551],[23.72104577461303,37.98537249132352],[23.721043715208076,37.98536481379932],[23.721043683354022,37.98536480561219],[23.72050013970744,37.985223824253616],[23.72049991671968,37.985223769646645],[23.72012344862528,37.98513078479654],[23.71990587419312,37.98507704512499],[23.719892192465707,37.985073666073795],[23.71987373779136,37.985068910207566],[23.719645112555174,37.98500998748385],[23.71956981897106,37.98499225367455],[23.719432500064322,37.984959909869005],[23.719287414366928,37.98493252516646],[23.71928593518636,37.984932213396945],[23.71903816950723,37.98487991152207],[23.71874592540786,37.98481822044845],[23.7180028240413,37.98466135177468],[23.71794869219702,37.98464992437968],[23.71784895906143,37.98462969378996],[23.717811818295722,37.98462216008063],[23.7173612255654,37.984530757767175],[23.71725382590402,37.98450897156036],[23.717251756149086,37.98450855199405],[23.717154934809212,37.98448752026361],[23.71639165973687,37.984321717947154],[23.71638843860871,37.984321034216954],[23.71594709561,37.98422737394475],[23.71591911589628,37.984221436305035],[23.715535583559042,37.98413677011908],[23.71552472361356,37.984134372574445],[23.71550632030089,37.98413031013687],[23.715474654139317,37.98414542651098],[23.715266459382537,37.98424481217809],[23.715246066894387,37.984254546265],[23.715095505144898,37.98439047133346],[23.715092750034984,37.984392958516466],[23.715070373185604,37.984413159798606],[23.714989696194156,37.98447639950262],[23.71489238402013,37.984552679182684],[23.714594782910265,37.98430416265072],[23.714567349561765,37.98428125391421],[23.71454228262663,37.984258023747465],[23.71451381172743,37.98423163892735],[23.714463451283077,37.98418636681051],[23.714430642501206,37.98415482329905],[23.713897846985848,37.983675766340525],[23.711710429232696,37.9812559010519],[23.711603036540623,37.9810978055759],[23.71151521914001,37.98094006895035],[23.711469551523823,37.98088819611128],[23.711432084722023,37.98084563742957],[23.711425600302952,37.98083827243916],[23.71146761741418,37.98082146288212],[23.711679578742004,37.98073666599337],[23.712104385408,37.98057096858435],[23.7122505057754,37.98051274253855],[23.71311515883004,37.9801543401407],[23.713183831270477,37.98012674979967],[23.71354995722043,37.97997964899353],[23.714404356275782,37.97969331496762],[23.714747099902954,37.97958148585665],[23.71476558234354,37.97961628606048],[23.715342348653714,37.97944777274609],[23.7165127265033,37.979152216629615],[23.716567599365614,37.97899531238479],[23.715777410218728,37.978463343273766],[23.715151584412098,37.9780412668949],[23.71491430135236,37.97790319277267],[23.714824961293658,37.97785120544779],[23.714709422106782,37.977796383064565],[23.714529812649563,37.97771115884089],[23.714454076774768,37.97767522280573],[23.71344656155686,37.977197151529],[23.71342169090804,37.977185349887435],[23.713412483640074,37.977181046347255],[23.713342488647946,37.97714833396239],[23.712736307539444,37.976865009520395],[23.712549386255365,37.976777642783205],[23.71234847871062,37.97668413082824],[23.712295259649128,37.97665935951484],[23.712144801909144,37.97658932832145],[23.712094643709232,37.97656598213031],[23.71204102475201,37.97654102495923],[23.71200057273564,37.97652219630045],[23.71199460699794,37.976519419252384],[23.711481906263305,37.97624036573657],[23.711445683411053,37.97622064957765],[23.711444736606758,37.976219935239016],[23.711108948532736,37.97596675992752],[23.7109672072968,37.97587837951103],[23.71059839069532,37.9756164457946],[23.709586644102146,37.97493174167816],[23.709388182079913,37.97478967207457],[23.709201051911354,37.97465571288417],[23.7089918984125,37.97450598859005],[23.708942314347517,37.97447049312756],[23.708749792402468,37.974333348246894],[23.708180545204,37.973927833962655],[23.707655727055602,37.97356872461859],[23.707563948335967,37.97350639695139],[23.707032729937527,37.973174965443015],[23.705885661036472,37.97241440135683],[23.705877275024314,37.972408840180535],[23.705738300173966,37.9723166839556],[23.705527777360174,37.97217712917338],[23.705520389763027,37.97217217433285],[23.70554420958509,37.97214730706532],[23.705561206092284,37.97212956361117],[23.705597677791406,37.97209148719212],[23.705143736583306,37.9717975816857],[23.70430907126081,37.971169241915064],[23.703760454157983,37.97081185333368],[23.702884325936566,37.97023732658348],[23.702370516491037,37.96989804513237],[23.702217145409374,37.969816541171696],[23.7019561023696,37.96970321922828],[23.701066002753006,37.9694251146961],[23.70101091427247,37.969407902521255],[23.700334445198816,37.96917635311481],[23.699872018045465,37.9689735716745],[23.699548860263654,37.96883186029141]]]}}]}